{
  "norad_id": 52637,
  "name": "STARLINK-3961",
  "history": [
    {
      "epoch": "2026-03-28T14:53:49.834752",
      "apogee_km": 540.7781455135892,
      "perigee_km": 538.7927017780021,
      "latitude_deg": -7.741759415024005,
      "longitude_deg": -136.71129471994936,
      "semi_major_axis_km": 6917.922423645795,
      "eccentricity": 0.0001435,
      "inclination_deg": 53.2162,
      "raan_deg": 174.1375,
      "arg_perigee_deg": 88.6122,
      "mean_anomaly_deg": 271.5034,
      "mean_motion_rev_day": 15.08826248
    }
  ]
}