{"fetched_at":"2026-03-30T13:17:50Z","count":15418,"tles":[{"name":"STARLINK-3961","line1":"1 52637U 22052AR  26087.62071568 -.00001494  00000+0 -75847-4 0  9996","line2":"2 52637  53.2162 174.1375 0001435  88.6122 271.5034 15.08826248214791","category":"Starlink"}]}